NORAD_CAT_ID,OBJECT_NAME,H0,DIST_H0,H_DIST_MIN,PT_DIST_MIN,DIST_MIN,HF,N_PT,DIST_HF,RCS,CCSDS_OMM_VERS,COMMENT,CREATION_DATE,ORIGINATOR,OBJECT_ID,CENTER_NAME,REF_FRAME,TIME_SYSTEM,MEAN_ELEMENT_THEORY,EPOCH,MEAN_MOTION,ECCENTRICITY,INCLINATION,RA_OF_ASC_NODE,ARG_OF_PERICENTER,MEAN_ANOMALY,EPHEMERIS_TYPE,CLASSIFICATION_TYPE,ELEMENT_SET_NO,REV_AT_EPOCH,BSTAR,MEAN_MOTION_DOT,MEAN_MOTION_DDOT,SEMIMAJOR_AXIS,PERIOD,APOAPSIS,PERIAPSIS,OBJECT_TYPE,RCS_SIZE,COUNTRY_CODE,LAUNCH_DATE,SITE,DECAY_DATE,FILE,GP_ID,TLE_LINE0,TLE_LINE1,TLE_LINE2
39625,CZ-2C R/B,2022-08-11T16:27:48.000,1093707.7171693924,16:29:59.000,132,490840.2155663173,16:32:10.000,262,1096534.6669043805,7.257000000000001,2.0,GENERATED VIA SPACE-TRACK.ORG API,2022-08-11T20:46:12,18 SPCS,2014-014B,EARTH,TEME,UTC,SGP4,2022-08-11T16:31:33.693888,15.03110078,0.0130902,98.347,170.8061,24.6765,336.0644,0,U,999,45785,0.000201,3.189e-05,0.0,6935.45,95.801,648.102,466.529,ROCKET BODY,LARGE,PRC,2014-03-31,JSC,,3534329,210031486,0 CZ-2C R/B,1 39625U 14014B   22223.68858442  .00003189  00000-0  20100-3 0  9998,2 39625  98.3470 170.8061 0130902  24.6765 336.0644 15.03110078457857
39771,H-2A R/B,2022-08-11T13:28:33.000,1097225.1078382293,13:30:39.000,127,601764.8806018784,13:32:44.000,251,1095132.1767383523,17.6774,2.0,GENERATED VIA SPACE-TRACK.ORG API,2022-08-11T17:30:41,18 SPCS,2014-029F,EARTH,TEME,UTC,SGP4,2022-08-11T05:30:18.653184,14.94819139,0.0016439,98.1281,125.7437,176.6453,183.4879,0,U,999,44762,0.00010868,1.123e-05,0.0,6961.071,96.333,594.379,571.493,ROCKET BODY,LARGE,JPN,2014-05-24,TNSTA,,3534319,210021958,0 H-2A R/B,1 39771U 14029F   22223.22938256  .00001123  00000-0  10868-3 0  9994,2 39771  98.1281 125.7437 0016439 176.6453 183.4879 14.94819139447624
40047,SL-24 R/B,2022-08-11T14:29:23.000,1096167.9948575138,14:30:52.000,90,897755.4436207482,14:32:21.000,178,1098298.479537461,4.831,2.0,GENERATED VIA SPACE-TRACK.ORG API,2022-08-11T17:30:41,18 SPCS,2014-033AP,EARTH,TEME,UTC,SGP4,2022-08-11T04:50:54.663648,13.61469109,0.0570552,97.9064,322.8516,112.4014,253.8589,0,U,999,40468,2.427e-05,2.5e-07,0.0,7408.495,105.768,1453.053,607.667,ROCKET BODY,LARGE,CIS,2014-06-19,OREN,,3534319,210020990,0 SL-24 R/B,1 40047U 14033AP  22223.20202157  .00000025  00000-0  24270-4 0  9992,2 40047  97.9064 322.8516 0570552 112.4014 253.8589 13.61469109404688
40306,CZ-2C R/B,2022-08-11T18:18:55.000,1098545.656083464,18:21:12.000,138,388849.8182561367,18:23:28.000,273,1098233.6678629778,7.704,2.0,GENERATED VIA SPACE-TRACK.ORG API,2022-08-11T22:56:12,18 SPCS,2014-071B,EARTH,TEME,UTC,SGP4,2022-08-11T19:54:40.057920,15.66393128,0.001111,97.4187,200.3476,150.451,209.738,0,U,999,43558,0.00036362,0.00037788,0.0,6747.372,91.931,376.733,361.741,ROCKET BODY,LARGE,PRC,2014-11-14,TSC,,3534638,210038711,0 CZ-2C R/B,1 40306U 14071B   22223.82963030  .00037788  00000-0  36362-3 0  9994,2 40306  97.4187 200.3476 0011110 150.4510 209.7380 15.66393128435581
40720,PSLV R/B,2022-08-11T14:56:54.000,1096952.5706682708,14:58:46.000,113,733511.6262382143,15:00:38.000,224,1094907.5082513525,5.7868,2.0,GENERATED VIA SPACE-TRACK.ORG API,2022-08-11T23:16:12,18 SPCS,2015-032F,EARTH,TEME,UTC,SGP4,2022-08-11T18:14:50.431488,14.80506693,0.0004583,98.0366,152.17,345.3409,14.7669,0,U,999,38292,6.4218e-05,4.38e-06,0.0,7005.862,97.264,630.938,624.516,ROCKET BODY,LARGE,IND,2015-07-10,SRI,,3534680,210039522,0 PSLV R/B,1 40720U 15032F   22223.76030592  .00000438  00000-0  64218-4 0  9997,2 40720  98.0366 152.1700 0004583 345.3409  14.7669 14.80506693382920
40937,PSLV R/B,2022-08-11T17:42:43.000,1099246.1310751687,17:44:09.000,87,935899.3185920601,17:45:34.000,171,1098451.49438062,6.0119,2.0,GENERATED VIA SPACE-TRACK.ORG API,2022-08-11T21:36:11,18 SPCS,2015-052H,EARTH,TEME,UTC,SGP4,2022-08-11T15:19:18.182496,14.81340375,0.0029726,5.9555,14.7072,188.2978,171.6657,0,U,999,37253,7.1665e-05,1.26e-05,0.0,7003.233,97.209,645.916,604.281,ROCKET BODY,LARGE,IND,2015-09-28,SRI,,3534430,210033766,0 PSLV R/B,1 40937U 15052H   22223.63840489  .00001260  00000-0  71665-4 0  9997,2 40937   5.9555  14.7072 0029726 188.2978 171.6657 14.81340375372533
41335,SENTINEL 3A,2022-08-11T11:58:03.000,1097837.6401234167,11:59:18.000,76,961923.4797445794,12:00:32.000,149,1097752.824555106,3.9811,2.0,GENERATED VIA SPACE-TRACK.ORG API,2022-08-11T21:26:12,18 SPCS,2016-011A,EARTH,TEME,UTC,SGP4,2022-08-11T16:09:53.148384,14.26739434,0.0001168,98.6196,290.164,99.2073,260.924,0,U,999,33764,3.7983e-05,4.8e-07,0.0,7180.787,100.929,803.491,801.814,PAYLOAD,LARGE,ESA,2016-02-16,PKMTR,,3534410,210033167,0 SENTINEL 3A,1 41335U 16011A   22223.67353181  .00000048  00000-0  37983-4 0  9996,2 41335  98.6196 290.1640 0001168  99.2073 260.9240 14.26739434337644
41620,PSLV R/B,2022-08-11T16:36:59.000,1096960.6641579948,16:38:58.000,120,633656.3024851899,16:40:58.000,239,1097611.2377596325,6.7064,2.0,GENERATED VIA SPACE-TRACK.ORG API,2022-08-11T22:56:12,18 SPCS,2016-040X,EARTH,TEME,UTC,SGP4,2022-08-11T18:56:38.449824,15.52008702,0.0015531,97.5109,359.8401,121.6348,238.6422,0,U,999,34485,0.00029601,0.00017815,0.0,6788.999,92.783,421.408,400.32,ROCKET BODY,LARGE,IND,2016-06-22,SRI,,3534635,210038306,0 PSLV R/B,1 41620U 16040X   22223.78933391  .00017815  00000-0  29601-3 0  9991,2 41620  97.5109 359.8401 0015531 121.6348 238.6422 15.52008702344857
41728,CZ-4C R/B,2022-08-11T12:18:49.000,1099604.1236950664,12:20:31.000,103,824987.3757357124,12:22:13.000,204,1099163.3486522103,7.49,2.0,GENERATED VIA SPACE-TRACK.ORG API,2022-08-11T21:56:12,18 SPCS,2016-049B,EARTH,TEME,UTC,SGP4,2022-08-11T18:02:23.086176,14.68198125,0.0103253,98.1417,287.8023,340.9161,18.8186,0,U,999,32168,3.542e-05,1.64e-06,0.0,7044.963,98.079,739.57,594.087,ROCKET BODY,LARGE,PRC,2016-08-09,TSC,,3534477,210034612,0 CZ-4C R/B,1 41728U 16049B   22223.75165609  .00000164  00000-0  35420-4 0  9991,2 41728  98.1417 287.8023 0103253 340.9161  18.8186 14.68198125321689
